{
  "type": "FeatureCollection",
  "features": [
    {
      "type": "Feature",
      "properties": {
        "norad_id": 40069,
        "name": "METEOR-M 2",
        "group": "weather",
        "lat": 50.50096804980352,
        "lon": -35.132687970265685,
        "alt_km": 818.1574543527004,
        "timestamp": "2025-12-24T03:53:29.285041+00:00",
        "meta_object_name": "METEOR-M 2",
        "meta_object_id": "2014-037A",
        "meta_epoch": "2025-12-23T20:53:34.942848",
        "meta_mean_motion": 14.21389634,
        "meta_eccentricity": 0.0005583,
        "meta_inclination": 98.4913,
        "meta_ra_of_asc_node": 335.0284,
        "meta_arg_of_pericenter": 174.8599,
        "meta_mean_anomaly": 185.2637,
        "meta_ephemeris_type": 0,
        "meta_classification_type": "U",
        "meta_norad_cat_id": 40069,
        "meta_element_set_no": 999,
        "meta_rev_at_epoch": 59441,
        "meta_bstar": -1.3946e-05,
        "meta_mean_motion_dot": -7.2e-07,
        "meta_mean_motion_ddot": 0,
        "tle_line1": "1 40069U 14037A   25357.87054332 -.00000072  00000+0 -13946-4 0  9995",
        "tle_line2": "2 40069  98.4913 335.0284 0005583 174.8599 185.2637 14.21389634594410"
      },
      "geometry": {
        "type": "Point",
        "coordinates": [
          -35.132687970265685,
          50.50096804980352
        ]
      }
    },
    {
      "type": "Feature",
      "properties": {
        "norad_id": 40267,
        "name": "HIMAWARI-8",
        "group": "weather",
        "lat": 3.8098871482039e-05,
        "lon": -68.02702828414489,
        "alt_km": 35782.54474084051,
        "timestamp": "2025-12-24T03:53:29.285054+00:00",
        "meta_object_name": "HIMAWARI-8",
        "meta_object_id": "2014-060A",
        "meta_epoch": "2025-12-23T18:56:10.934880",
        "meta_mean_motion": 1.00271913,
        "meta_eccentricity": 8.58e-05,
        "meta_inclination": 0.045,
        "meta_ra_of_asc_node": 209.8564,
        "meta_arg_of_pericenter": 94.6054,
        "meta_mean_anomaly": 212.8254,
        "meta_ephemeris_type": 0,
        "meta_classification_type": "U",
        "meta_norad_cat_id": 40267,
        "meta_element_set_no": 999,
        "meta_rev_at_epoch": 4100,
        "meta_bstar": 0,
        "meta_mean_motion_dot": -2.54e-06,
        "meta_mean_motion_ddot": 0,
        "tle_line1": "1 40267U 14060A   25357.78901545 -.00000254  00000+0  00000+0 0  9991",
        "tle_line2": "2 40267   0.0450 209.8564 0000858  94.6054 212.8254  1.00271913 41006"
      },
      "geometry": {
        "type": "Point",
        "coordinates": [
          -68.02702828414489,
          3.8098871482039e-05
        ]
      }
    },
    {
      "type": "Feature",
      "properties": {
        "norad_id": 40367,
        "name": "FENGYUN 2G",
        "group": "weather",
        "lat": 0.38621139630737006,
        "lon": -109.47187541850118,
        "alt_km": 35775.36637936344,
        "timestamp": "2025-12-24T03:53:29.285066+00:00",
        "meta_object_name": "FENGYUN 2G",
        "meta_object_id": "2014-090A",
        "meta_epoch": "2025-12-23T18:44:19.570848",
        "meta_mean_motion": 1.00283037,
        "meta_eccentricity": 0.0001794,
        "meta_inclination": 5.1935,
        "meta_ra_of_asc_node": 74.9603,
        "meta_arg_of_pericenter": 171.7462,
        "meta_mean_anomaly": 226.1214,
        "meta_ephemeris_type": 0,
        "meta_classification_type": "U",
        "meta_norad_cat_id": 40367,
        "meta_element_set_no": 999,
        "meta_rev_at_epoch": 4024,
        "meta_bstar": 0,
        "meta_mean_motion_dot": -2.82e-06,
        "meta_mean_motion_ddot": 0,
        "tle_line1": "1 40367U 14090A   25357.78078207 -.00000282  00000+0  00000+0 0  9996",
        "tle_line2": "2 40367   5.1935  74.9603 0001794 171.7462 226.1214  1.00283037 40245"
      },
      "geometry": {
        "type": "Point",
        "coordinates": [
          -109.47187541850118,
          0.38621139630737006
        ]
      }
    },
    {
      "type": "Feature",
      "properties": {
        "norad_id": 40732,
        "name": "METEOSAT-11 (MSG-4)",
        "group": "weather",
        "lat": 2.7771095144386364,
        "lon": 160.4861169481199,
        "alt_km": 35783.86967880525,
        "timestamp": "2025-12-24T03:53:29.285079+00:00",
        "meta_object_name": "METEOSAT-11 (MSG-4)",
        "meta_object_id": "2015-034A",
        "meta_epoch": "2025-12-23T18:18:44.521056",
        "meta_mean_motion": 1.00270943,
        "meta_eccentricity": 7.45e-05,
        "meta_inclination": 2.7639,
        "meta_ra_of_asc_node": 71.9711,
        "meta_arg_of_pericenter": 137.2582,
        "meta_mean_anomaly": 167.1898,
        "meta_ephemeris_type": 0,
        "meta_classification_type": "U",
        "meta_norad_cat_id": 40732,
        "meta_element_set_no": 999,
        "meta_rev_at_epoch": 545,
        "meta_bstar": 0,
        "meta_mean_motion_dot": 8.1e-07,
        "meta_mean_motion_ddot": 0,
        "tle_line1": "1 40732U 15034A   25357.76301529  .00000081  00000+0  00000+0 0  9991",
        "tle_line2": "2 40732   2.7639  71.9711 0000745 137.2582 167.1898  1.00270943  5455"
      },
      "geometry": {
        "type": "Point",
        "coordinates": [
          160.4861169481199,
          2.7771095144386364
        ]
      }
    },
    {
      "type": "Feature",
      "properties": {
        "norad_id": 41105,
        "name": "ELEKTRO-L 2",
        "group": "weather",
        "lat": 5.643818907745512,
        "lon": 136.68369871780519,
        "alt_km": 35797.37775448792,
        "timestamp": "2025-12-24T03:53:29.285092+00:00",
        "meta_object_name": "ELEKTRO-L 2",
        "meta_object_id": "2015-074A",
        "meta_epoch": "2025-12-23T01:04:44.322816",
        "meta_mean_motion": 1.00272278,
        "meta_eccentricity": 0.00035203,
        "meta_inclination": 6.25,
        "meta_ra_of_asc_node": 72.7058,
        "meta_arg_of_pericenter": 208.6905,
        "meta_mean_anomaly": 172.1579,
        "meta_ephemeris_type": 0,
        "meta_classification_type": "U",
        "meta_norad_cat_id": 41105,
        "meta_element_set_no": 999,
        "meta_rev_at_epoch": 3674,
        "meta_bstar": 0,
        "meta_mean_motion_dot": -9.9e-07,
        "meta_mean_motion_ddot": 0,
        "tle_line1": "1 41105U 15074A   25357.04495744 -.00000099  00000+0  00000+0 0  9994",
        "tle_line2": "2 41105   6.2500  72.7058 0003520 208.6905 172.1579  1.00272278 36746"
      },
      "geometry": {
        "type": "Point",
        "coordinates": [
          136.68369871780519,
          5.643818907745512
        ]
      }
    },
    {
      "type": "Feature",
      "properties": {
        "norad_id": 41752,
        "name": "INSAT-3DR",
        "group": "weather",
        "lat": 0.06488127989656343,
        "lon": -134.82251012485463,
        "alt_km": 35744.75975692079,
        "timestamp": "2025-12-24T03:53:29.285104+00:00",
        "meta_object_name": "INSAT-3DR",
        "meta_object_id": "2016-054A",
        "meta_epoch": "2025-12-23T19:27:50.577120",
        "meta_mean_motion": 1.0027147,
        "meta_eccentricity": 0.0014229,
        "meta_inclination": 0.1179,
        "meta_ra_of_asc_node": 86.2295,
        "meta_arg_of_pericenter": 185.5832,
        "meta_mean_anomaly": 186.7331,
        "meta_ephemeris_type": 0,
        "meta_classification_type": "U",
        "meta_norad_cat_id": 41752,
        "meta_element_set_no": 999,
        "meta_rev_at_epoch": 3406,
        "meta_bstar": 0,
        "meta_mean_motion_dot": -5.6e-07,
        "meta_mean_motion_ddot": 0,
        "tle_line1": "1 41752U 16054A   25357.81100205 -.00000056  00000+0  00000+0 0  9994",
        "tle_line2": "2 41752   0.1179  86.2295 0014229 185.5832 186.7331  1.00271470 34065"
      },
      "geometry": {
        "type": "Point",
        "coordinates": [
          -134.82251012485463,
          0.06488127989656343
        ]
      }
    },
    {
      "type": "Feature",
      "properties": {
        "norad_id": 41836,
        "name": "HIMAWARI-9",
        "group": "weather",
        "lat": -0.03993548479676467,
        "lon": -67.92452147506457,
        "alt_km": 35781.021459311254,
        "timestamp": "2025-12-24T03:53:29.285118+00:00",
        "meta_object_name": "HIMAWARI-9",
        "meta_object_id": "2016-064A",
        "meta_epoch": "2025-12-22T18:58:13.571040",
        "meta_mean_motion": 1.00272669,
        "meta_eccentricity": 0.00014802,
        "meta_inclination": 0.0164,
        "meta_ra_of_asc_node": 29.9097,
        "meta_arg_of_pericenter": 299.5848,
        "meta_mean_anomaly": 187.4267,
        "meta_ephemeris_type": 0,
        "meta_classification_type": "U",
        "meta_norad_cat_id": 41836,
        "meta_element_set_no": 999,
        "meta_rev_at_epoch": 3344,
        "meta_bstar": 0,
        "meta_mean_motion_dot": 0,
        "meta_mean_motion_ddot": 0,
        "tle_line1": "1 41836U 16064A   25356.79043485  .00000000  00000+0  00000+0 0  9998",
        "tle_line2": "2 41836   0.0164  29.9097 0001480 299.5848 187.4267  1.00272669 33441"
      },
      "geometry": {
        "type": "Point",
        "coordinates": [
          -67.92452147506457,
          -0.03993548479676467
        ]
      }
    }
  ]
}